1 35259U 91050N   18212.88147796 +.00000232 +00000-0 +74655-4 0  9991
2 35259 098.3905 179.1095 0020171 012.4456 015.7228 14.47761218757336
1 35260U 91050P   18212.83472961 +.00000231 +00000-0 +78106-4 0  9997
2 35260 098.4400 177.0025 0028367 060.5108 329.1457 14.45268812678554
1 35261U 91050Q   18212.79618069  .00001827  00000-0  28452-3 0  9994
2 35261  98.2895 214.1983 0019153 233.9057 126.0377 14.74136369523444
1 35262U 91050R   18211.88259722 +.00000292 +00000-0 +84904-4 0  9991
2 35262 098.2288 181.3733 0018619 282.5784 108.7703 14.51008898420112
1 35268U 04035L   18212.94784986 +.00001425 +00000-0 +73224-4 0  9999
2 35268 097.6806 273.3418 0005485 103.2840 022.1541 15.18154648245650
1 35269U 04035M   18212.34996969 +.00000619 +00000-0 +10167-3 0  9990
2 35269 097.9072 345.8394 0148267 159.0429 201.6940 14.67108390731344
1 35270U 04035N   18212.93731807 +.00000324 +00000-0 +67255-4 0  9999
2 35270 097.7338 249.0721 0179589 000.8233 117.6572 14.56876274728844
1 35271U 05024K   18212.95470174 +.00000220 +00000-0 +14960-4 0  9998
2 35271 097.5180 257.4400 0011127 240.8914 239.8334 15.16000961665583
1 35272U 05024L   18212.92726942 +.00000276 +00000-0 +17617-4 0  9996
2 35272 097.5061 256.9805 0011996 231.1304 252.8911 15.16530306700032
1 35273U 05024M   18212.92424978 +.00000287 +00000-0 +17619-4 0  9995
2 35273 097.5037 259.0267 0012844 214.5057 145.5344 15.17721551738534
1 35274U 08056D   18212.91601852 -.00000084 +00000-0 -20546-4 0  9991
2 35274 099.0455 194.3952 0170076 355.3904 004.5690 14.06202670492869
1 35275U 08056E   18212.90648244 +.00000100 +00000-0 +56291-4 0  9990
2 35275 098.7917 198.3361 0140260 010.4463 349.9578 14.25084342498107
1 35278U 93036AJG 18210.56623006 +.00001130 +00000-0 +30749-3 0  9997
2 35278 074.0475 166.5486 0067412 168.2709 315.4969 14.47302263486022
1 35279U 93036AJH 18213.45868638  .00001114  00000-0  16797-3 0  9990
2 35279  74.0025 262.2026 0034487 349.3946  10.6495 14.75295638491212
1 35280U 93036AJJ 18212.54616017  .00000554  00000-0  16495-3 0  9995
2 35280  74.0337 150.0272 0066200 176.9107 298.0243 14.44192665485249
1 35281U 93036AJK 18212.85774374 +.00000686 +00000-0 +16798-3 0  9993
2 35281 074.0021 044.4074 0017547 269.3430 090.5722 14.54338960487950
1 35282U 93036AJL 18211.74390618 +.00001163 +00000-0 +28376-3 0  9992
2 35282 074.0967 129.8185 0098941 112.2282 248.9410 14.50854129485912
1 35283U 93036AJM 18213.21271531  .00003632  00000-0  36679-3 0  9997
2 35283  74.0225 295.8100 0005452 289.8491  70.2103 14.91451228493775
1 35284U 93036AJN 18212.22828796 +.00000038 +00000-0 +21963-4 0  9997
2 35284 074.0496 165.5555 0017590 196.0611 231.1727 14.35859744268775
1 35285U 93036AJP 18213.26589384  .00000668  00000-0  17517-3 0  9998
2 35285  74.0266  76.8893 0017989 120.6066 239.6872 14.51080457488873
1 35287U 93036AJR 18212.87090559 +.00000024 +00000-0 +17902-4 0  9992
2 35287 074.0307 169.5066 0019054 204.4244 185.8343 14.34477354482941
1 35288U 93036AJS 18212.91770830 +.00000398 +00000-0 +11715-3 0  9994
2 35288 073.9556 060.0218 0049893 181.7324 178.3670 14.46255522488557
1 35290U 93036AJU 18212.39343370 +.00000519 +00000-0 +15344-3 0  9991
2 35290 074.0187 105.7285 0014047 142.6445 217.5693 14.45885371488636
1 35291U 93036AJV 18212.55482612  .00000925  00000-0  83425-4 0  9990
2 35291  74.0416  54.3928 0095680 113.0918 279.0757 14.93808070501942
1 35292U 93036AJW 18212.31755795  .00002984  00000-0  27892-3 0  9992
2 35292  74.0004 173.0616 0030009 267.2275  92.5474 14.94319067496098
1 35293U 97051PH  18212.87228347  .00004343  00000-0  30500-3 0  9994
2 35293  86.3070   3.2096 0018081 179.4172 180.7087 15.04745461495676
1 35294U 97051PJ  18212.88615920  .00001308  00000-0  29362-3 0  9995
2 35294  86.3270  69.7225 0013712 193.8147 225.8000 14.55788753487176
1 35296U 97051PL  18212.36417306  .00001044  00000-0  26337-3 0  9994
2 35296  86.3121  68.2872 0010823 213.7280 146.3237 14.50182907485907
1 35297U 97051PM  18213.05773416  .00000245  00000-0  77777-4 0  9996
2 35297  86.3914 116.9306 0017213 343.5619  74.4882 14.35764455483585
1 35299U 97051PP  18213.14107010  .00000271  00000-0  10148-3 0  9996
2 35299  86.2948 103.2096 0065073 175.1643 341.9003 14.26859966479798
1 35302U 97051PS  11220.41126999 +.00000525 +00000-0 +21736-3 0  9996
2 35302 086.2810 095.5222 0057197 026.9968 333.4197 14.23816577117120
1 35304U 97051PU  09349.80647301 +.00001210 +00000-0 +66305-3 0  9998
2 35304 086.3167 356.0655 0139899 197.2106 161.3332 14.06252434031366
1 35307U 91025AG  11175.07150852 +.00003478 +00000-0 +15834-1 0  9992
2 35307 065.1213 203.4950 5481019 341.4343 008.4239 04.52056668036581
1 35310U 91025AK  11349.26946552 +.00001966 +00000-0 +95020-2 0  9996
2 35310 065.6596 134.9796 5571389 333.1951 023.7471 04.38222833043526
1 35314U 91025AP  14079.17141616 +.00031141 +00000-0 +10525+0 0  9993
2 35314 063.6184 138.5983 5050164 358.5131 000.4306 05.19452887090258
1 35319U 99057RX  18212.63642568 +.00000348 +00000-0 +18974-3 0  9992
2 35319 098.5479 359.7981 0202108 233.4223 186.3474 14.08100902859571
1 35320U 99057RY  18212.75672640  .00000229  00000-0  51010-4 0  9998
2 35320  98.0340 181.2585 0000783  84.8544 275.2749 14.65407604624713
1 35322U 99057SA  18212.07360865 +.00000052 +00000-0 +45414-4 0  9993
2 35322 098.9934 165.1840 0202146 266.7070 091.0959 14.11428702264888
1 35323U 99057SB  18212.20490802  .00000241  00000-0  64335-4 0  9997
2 35323  98.3866 216.0695 0065128 212.5006 147.2174 14.56100508710964
1 35324U 99057SC  11274.16073958 -.00003280 +00000-0 -11189-2 0  9998
2 35324 098.3666 234.7514 0095375 207.6294 152.0497 14.33273117302669
1 35325U 99057SD  18213.09855193  .00000424  00000-0  70488-4 0  9994
2 35325  98.4694 175.6676 0018505 166.8862 193.2830 14.75533667767872
1 35326U 99057SE  18212.53525873 -.00000065  00000-0 -15148-4 0  9997
2 35326  98.4210 243.2824 0228766 113.5363 249.0016 13.99510395697350
1 35327U 99057SF  18213.18593634  .00000245  00000-0  76026-4 0  9990
2 35327  98.6306 195.6901 0090742 237.4129 121.8278 14.47924478762537
1 35329U 99057SH  18212.91783661 -.00000019 +00000-0 +89034-5 0  9997
2 35329 098.3237 087.0368 0133366 322.6859 102.4099 14.27151941835191
1 35330U 99057SJ  18212.82663143 +.00000004 +00000-0 +15866-4 0  9995
2 35330 098.5882 170.9286 0084735 318.3334 041.1418 14.39608676806330
1 35331U 99057SK  18212.76427174  .00000481  00000-0  13663-3 0  9992
2 35331  98.6815 198.8826 0118956  92.7741  31.1200 14.46055761817918
1 35332U 99057SL  18213.48789725 -.00000019  00000-0  94141-5 0  9996
2 35332  98.4868 114.1417 0123110   3.2515 356.9438 14.26314880809567
1 35334U 99057SN  18213.38715509  .00000209  00000-0  66035-4 0  9996
2 35334  98.5256 188.0077 0076594 143.2209 217.4274 14.48523645652651
1 35335U 01049PT  12034.85550724 +.00000176 +00000-0 +38114-4 0  9994
2 35335 097.7722 002.3658 0048743 221.5748 116.7175 14.68335919350593
1 35336U 01049PU  15310.22555668  .00001460  00000-0  25698-3 0  9997
2 35336  97.7288 110.5233 0077542 135.1599 233.4363 14.67055962585070
1 35338U 01049PW  14107.23843678 +.00007045 +00000-0 +19110-2 0  9990
2 35338 097.9127 182.5090 0178274 012.9460 349.5390 14.38874493537127
1 35339U 01049PX  18213.29493963  .00000292  00000-0  96560-4 0  9990
2 35339  98.1265  40.3882 0183783 194.5172 165.0695 14.35780015825269
1 35341U 01049PZ  18211.98951948 +.00000470 +00000-0 +64925-4 0  9997
2 35341 097.8747 121.6772 0033105 290.0567 069.7084 14.82367989822471
1 35342U 01049QA  18213.30885878  .00000042  00000-0  38875-4 0  9994
2 35342  98.2378  44.6568 0366482  10.9528 349.9345 13.89527786710071
1 35344U 01049QC  18211.96844873 +.00000244 +00000-0 +54069-4 0  9993
2 35344 098.0127 280.0973 0055638 092.2057 268.5519 14.64408627274774
1 35345U 01049QD  18209.41740201 +.00000408 +00000-0 +89111-4 0  9999
2 35345 098.0735 195.9752 0063185 225.2246 134.3806 14.61819532290813
1 35346U 01049QE  18211.19156791 +.00000467 +00000-0 +13820-3 0  9991
2 35346 098.9079 203.9770 0037977 211.4320 148.4602 14.47996235839969
1 35347U 01049QF  18213.08108553  .00010049  00000-0  34536-3 0  9999
2 35347  98.3808 166.0990 0017004  44.1500 316.1091 15.30213480808304
